[{"OBJECT_NAME":"ONEWEB-0058","OBJECT_ID":"2020-008AG","EPOCH":"2025-08-02T15:31:56.343360","MEAN_MOTION":13.10375236,"ECCENTRICITY":0.0001915,"INCLINATION":87.8797,"RA_OF_ASC_NODE":99.8217,"ARG_OF_PERICENTER":74.8905,"MEAN_ANOMALY":285.2434,"EPHEMERIS_TYPE":0,"CLASSIFICATION_TYPE":"U","NORAD_CAT_ID":45161,"ELEMENT_SET_NO":999,"REV_AT_EPOCH":26745,"BSTAR":-0.0010792,"MEAN_MOTION_DOT":-3.64e-6,"MEAN_MOTION_DDOT":0},{"OBJECT_NAME":"ONEWEB-0059","OBJECT_ID":"2020-008AH","EPOCH":"2025-08-02T09:57:05.157792","MEAN_MOTION":13.10375213,"ECCENTRICITY":0.0001896,"INCLINATION":87.8802,"RA_OF_ASC_NODE":99.8669,"ARG_OF_PERICENTER":74.154,"MEAN_ANOMALY":285.9796,"EPHEMERIS_TYPE":0,"CLASSIFICATION_TYPE":"U","NORAD_CAT_ID":45162,"ELEMENT_SET_NO":999,"REV_AT_EPOCH":26657,"BSTAR":-0.0012204,"MEAN_MOTION_DOT":-4.13e-6,"MEAN_MOTION_DDOT":0},{"OBJECT_NAME":"ONEWEB-0062","OBJECT_ID":"2020-008AJ","EPOCH":"2025-08-02T05:04:18.149088","MEAN_MOTION":13.10373383,"ECCENTRICITY":0.0001687,"INCLINATION":87.8795,"RA_OF_ASC_NODE":99.8866,"ARG_OF_PERICENTER":66.488,"MEAN_ANOMALY":293.6424,"EPHEMERIS_TYPE":0,"CLASSIFICATION_TYPE":"U","NORAD_CAT_ID":45163,"ELEMENT_SET_NO":999,"REV_AT_EPOCH":26641,"BSTAR":0.0019903,"MEAN_MOTION_DOT":7.07e-6,"MEAN_MOTION_DDOT":0},{"OBJECT_NAME":"ONEWEB-0065","OBJECT_ID":"2020-008AK","EPOCH":"2025-08-03T04:24:29.589120","MEAN_MOTION":13.10178032,"ECCENTRICITY":0.0001832,"INCLINATION":87.8802,"RA_OF_ASC_NODE":99.7183,"ARG_OF_PERICENTER":95.2666,"MEAN_ANOMALY":264.8671,"EPHEMERIS_TYPE":0,"CLASSIFICATION_TYPE":"U","NORAD_CAT_ID":45164,"ELEMENT_SET_NO":999,"REV_AT_EPOCH":26697,"BSTAR":-0.020947,"MEAN_MOTION_DOT":-7.273e-5,"MEAN_MOTION_DDOT":0},{"OBJECT_NAME":"ONEWEB-0066","OBJECT_ID":"2020-020A","EPOCH":"2025-08-02T03:35:51.619200","MEAN_MOTION":13.11420356,"ECCENTRICITY":0.0002016,"INCLINATION":87.881,"RA_OF_ASC_NODE":84.6478,"ARG_OF_PERICENTER":84.1582,"MEAN_ANOMALY":275.9776,"EPHEMERIS_TYPE":0,"CLASSIFICATION_TYPE":"U","NORAD_CAT_ID":45424,"ELEMENT_SET_NO":999,"REV_AT_EPOCH":26086,"BSTAR":0.000114,"MEAN_MOTION_DOT":5.3e-7,"MEAN_MOTION_DDOT":0},{"OBJECT_NAME":"ONEWEB-0067","OBJECT_ID":"2020-020B","EPOCH":"2025-08-02T09:59:21.387264","MEAN_MOTION":13.11415574,"ECCENTRICITY":0.0001921,"INCLINATION":87.8796,"RA_OF_ASC_NODE":84.5053,"ARG_OF_PERICENTER":84.4381,"MEAN_ANOMALY":275.6966,"EPHEMERIS_TYPE":0,"CLASSIFICATION_TYPE":"U","NORAD_CAT_ID":45425,"ELEMENT_SET_NO":999,"REV_AT_EPOCH":26095,"BSTAR":7.874e-5,"MEAN_MOTION_DOT":4.1e-7,"MEAN_MOTION_DDOT":0},{"OBJECT_NAME":"ONEWEB-0080","OBJECT_ID":"2020-020C","EPOCH":"2025-08-02T10:12:35.194176","MEAN_MOTION":13.11414256,"ECCENTRICITY":0.0002034,"INCLINATION":87.881,"RA_OF_ASC_NODE":84.593,"ARG_OF_PERICENTER":72.1584,"MEAN_ANOMALY":287.9765,"EPHEMERIS_TYPE":0,"CLASSIFICATION_TYPE":"U","NORAD_CAT_ID":45426,"ELEMENT_SET_NO":999,"REV_AT_EPOCH":26092,"BSTAR":-0.0010263,"MEAN_MOTION_DOT":-3.51e-6,"MEAN_MOTION_DDOT":0},{"OBJECT_NAME":"ONEWEB-0090","OBJECT_ID":"2020-020D","EPOCH":"2025-08-02T03:21:11.281824","MEAN_MOTION":13.11418269,"ECCENTRICITY":0.0001744,"INCLINATION":87.8808,"RA_OF_ASC_NODE":84.652,"ARG_OF_PERICENTER":78.7453,"MEAN_ANOMALY":281.3871,"EPHEMERIS_TYPE":0,"CLASSIFICATION_TYPE":"U","NORAD_CAT_ID":45427,"ELEMENT_SET_NO":999,"REV_AT_EPOCH":26085,"BSTAR":-0.00078294,"MEAN_MOTION_DOT":-2.65e-6,"MEAN_MOTION_DDOT":0},{"OBJECT_NAME":"ONEWEB-0061","OBJECT_ID":"2020-020E","EPOCH":"2025-08-02T04:07:23.866464","MEAN_MOTION":13.1141652,"ECCENTRICITY":0.000184,"INCLINATION":87.8809,"RA_OF_ASC_NODE":84.6271,"ARG_OF_PERICENTER":79.7256,"MEAN_ANOMALY":280.4079,"EPHEMERIS_TYPE":0,"CLASSIFICATION_TYPE":"U","NORAD_CAT_ID":45428,"ELEMENT_SET_NO":999,"REV_AT_EPOCH":26081,"BSTAR":0.0016421,"MEAN_MOTION_DOT":5.95e-6,"MEAN_MOTION_DDOT":0},{"OBJECT_NAME":"ONEWEB-0081","OBJECT_ID":"2020-020F","EPOCH":"2025-08-02T11:00:13.396896","MEAN_MOTION":13.11419023,"ECCENTRICITY":0.000198,"INCLINATION":87.8805,"RA_OF_ASC_NODE":84.5899,"ARG_OF_PERICENTER":83.8682,"MEAN_ANOMALY":276.2672,"EPHEMERIS_TYPE":0,"CLASSIFICATION_TYPE":"U","NORAD_CAT_ID":45429,"ELEMENT_SET_NO":999,"REV_AT_EPOCH":26096,"BSTAR":8.3336e-5,"MEAN_MOTION_DOT":4.2e-7,"MEAN_MOTION_DDOT":0},{"OBJECT_NAME":"ONEWEB-0069","OBJECT_ID":"2020-020G","EPOCH":"2025-08-02T14:24:02.999808","MEAN_MOTION":13.11417906,"ECCENTRICITY":0.0001823,"INCLINATION":87.8812,"RA_OF_ASC_NODE":84.5539,"ARG_OF_PERICENTER":83.4605,"MEAN_ANOMALY":276.6731,"EPHEMERIS_TYPE":0,"CLASSIFICATION_TYPE":"U","NORAD_CAT_ID":45430,"ELEMENT_SET_NO":999,"REV_AT_EPOCH":26091,"BSTAR":-0.0016317,"MEAN_MOTION_DOT":-5.66e-6,"MEAN_MOTION_DDOT":0},{"OBJECT_NAME":"ONEWEB-0031","OBJECT_ID":"2020-020H","EPOCH":"2025-08-02T10:04:02.556192","MEAN_MOTION":13.11415236,"ECCENTRICITY":0.0001698,"INCLINATION":87.8806,"RA_OF_ASC_NODE":84.6202,"ARG_OF_PERICENTER":72.7795,"MEAN_ANOMALY":287.3519,"EPHEMERIS_TYPE":0,"CLASSIFICATION_TYPE":"U","NORAD_CAT_ID":45431,"ELEMENT_SET_NO":999,"REV_AT_EPOCH":26087,"BSTAR":-0.00012139,"MEAN_MOTION_DOT":-3.0e-7,"MEAN_MOTION_DDOT":0},{"OBJECT_NAME":"ONEWEB-0027","OBJECT_ID":"2020-020J","EPOCH":"2025-08-02T12:37:15.659616","MEAN_MOTION":13.1773134,"ECCENTRICITY":0.0001798,"INCLINATION":87.9027,"RA_OF_ASC_NODE":69.2604,"ARG_OF_PERICENTER":79.1341,"MEAN_ANOMALY":280.9993,"EPHEMERIS_TYPE":0,"CLASSIFICATION_TYPE":"U","NORAD_CAT_ID":45432,"ELEMENT_SET_NO":999,"REV_AT_EPOCH":26439,"BSTAR":-7.3835e-5,"MEAN_MOTION_DOT":-1.6e-7,"MEAN_MOTION_DDOT":0},{"OBJECT_NAME":"ONEWEB-0064","OBJECT_ID":"2020-020K","EPOCH":"2025-08-02T04:31:59.748672","MEAN_MOTION":13.11415905,"ECCENTRICITY":0.0001635,"INCLINATION":87.8804,"RA_OF_ASC_NODE":84.6581,"ARG_OF_PERICENTER":75.1304,"MEAN_ANOMALY":285.0005,"EPHEMERIS_TYPE":0,"CLASSIFICATION_TYPE":"U","NORAD_CAT_ID":45433,"ELEMENT_SET_NO":999,"REV_AT_EPOCH":26088,"BSTAR":0.00011081,"MEAN_MOTION_DOT":5.2e-7,"MEAN_MOTION_DDOT":0},{"OBJECT_NAME":"ONEWEB-0018","OBJECT_ID":"2020-020L","EPOCH":"2025-08-02T03:28:31.005984","MEAN_MOTION":13.11419563,"ECCENTRICITY":0.0001809,"INCLINATION":87.8807,"RA_OF_ASC_NODE":84.6512,"ARG_OF_PERICENTER":80.2254,"MEAN_ANOMALY":279.9078,"EPHEMERIS_TYPE":0,"CLASSIFICATION_TYPE":"U","NORAD_CAT_ID":45434,"ELEMENT_SET_NO":999,"REV_AT_EPOCH":26081,"BSTAR":-0.00058623,"MEAN_MOTION_DOT":-1.95e-6,"MEAN_MOTION_DDOT":0},{"OBJECT_NAME":"ONEWEB-0083","OBJECT_ID":"2020-020M","EPOCH":"2025-08-02T03:13:51.485088","MEAN_MOTION":13.11418259,"ECCENTRICITY":0.0001703,"INCLINATION":87.8813,"RA_OF_ASC_NODE":84.6389,"ARG_OF_PERICENTER":78.5053,"MEAN_ANOMALY":281.6266,"EPHEMERIS_TYPE":0,"CLASSIFICATION_TYPE":"U","NORAD_CAT_ID":45435,"ELEMENT_SET_NO":999,"REV_AT_EPOCH":26085,"BSTAR":-0.0012417,"MEAN_MOTION_DOT":-4.27e-6,"MEAN_MOTION_DDOT":0},{"OBJECT_NAME":"ONEWEB-0095","OBJECT_ID":"2020-020N","EPOCH":"2025-08-02T14:01:01.928640","MEAN_MOTION":13.1141828,"ECCENTRICITY":0.0001116,"INCLINATION":87.88,"RA_OF_ASC_NODE":84.573,"ARG_OF_PERICENTER":96.1647,"MEAN_ANOMALY":263.9608,"EPHEMERIS_TYPE":0,"CLASSIFICATION_TYPE":"U","NORAD_CAT_ID":45436,"ELEMENT_SET_NO":999,"REV_AT_EPOCH":26091,"BSTAR":-0.001464,"MEAN_MOTION_DOT":-5.06e-6,"MEAN_MOTION_DDOT":0}]
