ONEWEB-0058             
1 45161U 20008AG  25214.64717990 -.00000364  00000+0 -10792-2 0  9999
2 45161  87.8797  99.8217 0001915  74.8905 285.2434 13.10375236267453
ONEWEB-0059             
1 45162U 20008AH  25214.41464303 -.00000413  00000+0 -12204-2 0  9997
2 45162  87.8802  99.8669 0001896  74.1540 285.9796 13.10375213266573
ONEWEB-0062             
1 45163U 20008AJ  25214.21132117  .00000707  00000+0  19903-2 0  9998
2 45163  87.8795  99.8866 0001687  66.4880 293.6424 13.10373383266416
ONEWEB-0065             
1 45164U 20008AK  25215.18367580 -.00007273  00000+0 -20947-1 0  9996
2 45164  87.8802  99.7183 0001832  95.2666 264.8671 13.10178032266970
ONEWEB-0066             
1 45424U 20020A   25214.14990300  .00000053  00000+0  11400-3 0  9999
2 45424  87.8810  84.6478 0002016  84.1582 275.9776 13.11420356260868
ONEWEB-0067             
1 45425U 20020B   25214.41621976  .00000041  00000+0  78740-4 0  9998
2 45425  87.8796  84.5053 0001921  84.4381 275.6966 13.11415574260958
ONEWEB-0080             
1 45426U 20020C   25214.42540734 -.00000351  00000+0 -10263-2 0  9992
2 45426  87.8810  84.5930 0002034  72.1584 287.9765 13.11414256260921
ONEWEB-0090             
1 45427U 20020D   25214.13971391 -.00000265  00000+0 -78294-3 0  9991
2 45427  87.8808  84.6520 0001744  78.7453 281.3871 13.11418269260855
ONEWEB-0061             
1 45428U 20020E   25214.17180401  .00000595  00000+0  16421-2 0  9997
2 45428  87.8809  84.6271 0001840  79.7256 280.4079 13.11416520260813
ONEWEB-0081             
1 45429U 20020F   25214.45848839  .00000042  00000+0  83336-4 0  9993
2 45429  87.8805  84.5899 0001980  83.8682 276.2672 13.11419023260968
ONEWEB-0069             
1 45430U 20020G   25214.60003472 -.00000566  00000+0 -16317-2 0  9994
2 45430  87.8812  84.5539 0001823  83.4605 276.6731 13.11417906260919
ONEWEB-0031             
1 45431U 20020H   25214.41947403 -.00000030  00000+0 -12139-3 0  9990
2 45431  87.8806  84.6202 0001698  72.7795 287.3519 13.11415236260874
ONEWEB-0027             
1 45432U 20020J   25214.52587569 -.00000016  00000+0 -73835-4 0  9991
2 45432  87.9027  69.2604 0001798  79.1341 280.9993 13.17731340264394
ONEWEB-0064             
1 45433U 20020K   25214.18888598  .00000052  00000+0  11081-3 0  9992
2 45433  87.8804  84.6581 0001635  75.1304 285.0005 13.11415905260887
ONEWEB-0018             
1 45434U 20020L   25214.14480331 -.00000195  00000+0 -58623-3 0  9995
2 45434  87.8807  84.6512 0001809  80.2254 279.9078 13.11419563260818
ONEWEB-0083             
1 45435U 20020M   25214.13462367 -.00000427  00000+0 -12417-2 0  9992
2 45435  87.8813  84.6389 0001703  78.5053 281.6266 13.11418259260852
ONEWEB-0095             
1 45436U 20020N   25214.58405010 -.00000506  00000+0 -14640-2 0  9992
2 45436  87.8800  84.5730 0001116  96.1647 263.9608 13.11418280260915
